[{"OBJECT_NAME":"ZHUHAI-1 03D","OBJECT_ID":"2019-060E","EPOCH":"2026-03-09T22:12:44.409600","MEAN_MOTION":15.43807554,"ECCENTRICITY":0.00080361,"INCLINATION":97.5253,"RA_OF_ASC_NODE":214.8478,"ARG_OF_PERICENTER":305.9727,"MEAN_ANOMALY":54.0775,"EPHEMERIS_TYPE":0,"CLASSIFICATION_TYPE":"U","NORAD_CAT_ID":44538,"ELEMENT_SET_NO":999,"REV_AT_EPOCH":36073,"BSTAR":0.00071898588,"MEAN_MOTION_DOT":0.00032597,"MEAN_MOTION_DDOT":0},{"OBJECT_NAME":"STARLINK-1154","OBJECT_ID":"2020-012W","EPOCH":"2026-03-09T02:30:04.608000","MEAN_MOTION":15.45952497,"ECCENTRICITY":0.00072447,"INCLINATION":53.0499,"RA_OF_ASC_NODE":12.8007,"ARG_OF_PERICENTER":86.205,"MEAN_ANOMALY":273.9784,"EPHEMERIS_TYPE":0,"CLASSIFICATION_TYPE":"U","NORAD_CAT_ID":45198,"ELEMENT_SET_NO":999,"REV_AT_EPOCH":33520,"BSTAR":0.0019057073,"MEAN_MOTION_DOT":0.00095128,"MEAN_MOTION_DDOT":0}]
